NORAD_CAT_ID,OBJECT_NAME,OBJECT_TYPE,EPOCH,MEAN_MOTION,ECCENTRICITY,INCLINATION,RA_OF_ASC_NODE,ARG_OF_PERICENTER,MEAN_ANOMALY,BSTAR,MEAN_MOTION_DOT,MEAN_MOTION_DDOT,TLE_LINE0,TLE_LINE1,TLE_LINE2,SEMIMAJOR_AXIS,PERIOD,APOGEE,PERIGEE,DECAYED
53633.0,STARLINK-4593,PAYLOAD,2022-09-10 20:00:01,15.7318619,0.0001171,53.216,220.1355,79.2663,292.5025,0.00012077,0.00016352,0.0,0 STARLINK-4593,1 53633U 22104AX  22253.83334491  .00016352  00000-0  12077-3 0  9995,2 53633  53.2160 220.1355 0001171  79.2663 292.5025 15.73186190  2187,6727.935,91.534,350.587,349.01199999999994,0.0
53633.0,STARLINK-4593,PAYLOAD,2022-09-10 22:00:00,15.73211636,0.0001258,53.2162,219.7234,81.9872,41.9986,-0.00024131,-0.00034364,0.0,0 STARLINK-4593,1 53633U 22104AX  22253.91667824 -.00034364  00000-0 -24131-3 0  9992,2 53633  53.2162 219.7234 0001258  81.9872  41.9986 15.73211636  1306,6727.861999999999,91.533,350.5730000000001,348.881,0.0
53633.0,STARLINK-4593,PAYLOAD,2022-09-11 14:00:01,15.73272206,0.0001234,53.2157,216.4252,80.4705,221.3902,-0.00020383,-0.00029215,0.0,0 STARLINK-4593,1 53633U 22104AX  22254.58334491 -.00029215  00000-0 -20383-3 0  9991,2 53633  53.2157 216.4252 0001234  80.4705 221.3902 15.73272206  2300,6727.689,91.529,350.385,348.724,0.0
53633.0,STARLINK-4593,PAYLOAD,2022-09-11 20:00:01,15.7306163,0.0001488,53.2168,215.1876,79.5247,199.0609,0.0015595,0.00222826,0.0,0 STARLINK-4593,1 53633U 22104AX  22254.83334491  .00222826  00000-0  15595-2 0  9998,2 53633  53.2168 215.1876 0001488  79.5247 199.0609 15.73061630  2347,6728.29,91.541,351.156,349.154,0.0
53633.0,STARLINK-4593,PAYLOAD,2022-09-11 22:00:00,15.73172627,0.0001564,53.2171,214.7756,80.317,310.4411,0.00037942,0.00052903,0.0,0 STARLINK-4593,1 53633U 22104AX  22254.91667824  .00052903  00000-0  37942-3 0  9994,2 53633  53.2171 214.7756 0001564  80.3170 310.4411 15.73172627  1307,6727.973000000001,91.535,350.89,348.786,0.0
53633.0,STARLINK-4593,PAYLOAD,2022-09-12 12:00:00,15.7326622,9.19e-05,53.2161,211.8894,73.3373,23.1555,-0.0005367999999999,-0.00075493,0.0,0 STARLINK-4593,1 53633U 22104AX  22255.50001157 -.00075493  00000-0 -53680-3 0  9999,2 53633  53.2161 211.8894 0000919  73.3373  23.1555 15.73266220  1307,6727.706,91.529,350.19,348.95300000000015,0.0
53633.0,STARLINK-4593,PAYLOAD,2022-09-12 20:00:01,15.73230646,0.0001094999999999,53.2162,210.2384,90.8775,94.6526,-1.7107e-06,-8.599999999999999e-06,0.0,0 STARLINK-4593,1 53633U 22104AX  22255.83335648 -.00000860  00000-0 -17107-5 0  9992,2 53633  53.2162 210.2384 0001095  90.8775  94.6526 15.73230646  2508,6727.808000000001,91.531,350.409,348.936,0.0
53633.0,STARLINK-4593,PAYLOAD,2022-09-12 22:00:00,15.73260873,0.0001077,53.2164,209.8266,88.4391,209.2492,-0.00065737,-0.0009211,0.0,0 STARLINK-4593,1 53633U 22104AX  22255.91667824 -.00092110  00000-0 -65737-3 0  9994,2 53633  53.2164 209.8266 0001077  88.4391 209.2492 15.73260873  1308,6727.722,91.53,350.311,348.862,0.0
53633.0,STARLINK-4593,PAYLOAD,2022-09-13 06:00:00,15.73144441,0.0001065999999999,53.216,208.1791,78.5497,308.1139,4.8736e-05,6.209e-05,0.0,0 STARLINK-4593,1 53633U 22104AX  22256.25001157  .00006209  00000-0  48736-4 0  9996,2 53633  53.2160 208.1791 0001066  78.5497 308.1139 15.73144441  2562,6728.054,91.536,350.636,349.201,0.0
53633.0,STARLINK-4593,PAYLOAD,2022-09-13 14:00:01,15.73180961,9.35e-05,53.216,206.5282,87.084,28.4369,-0.00016493,-0.00023681,0.0,0 STARLINK-4593,1 53633U 22104AX  22256.58334491 -.00023681  00000-0 -16493-3 0  9991,2 53633  53.2160 206.5282 0000935  87.0840  28.4369 15.73180961  1305,6727.949000000001,91.534,350.444,349.185,0.0
53633.0,STARLINK-4593,PAYLOAD,2022-09-13 22:00:00,15.73117219,0.0001167,53.216,204.8787,104.7158,99.6179,0.0003498,0.00048582,0.0,0 STARLINK-4593,1 53633U 22104AX  22256.91667824  .00048582  00000-0  34980-3 0  9993,2 53633  53.2160 204.8787 0001167 104.7158  99.6179 15.73117219  1308,6728.130999999999,91.538,350.781,349.211,0.0
53633.0,STARLINK-4593,PAYLOAD,2022-09-14 04:00:00,15.73157803,0.0001234,53.2158,203.6433,93.0524,87.8994,-0.00033672,-0.00047524,0.0,0 STARLINK-4593,1 53633U 22104AX  22257.16667824 -.00047524  00000-0 -33672-3 0  9995,2 53633  53.2158 203.6433 0001234  93.0524  87.8994 15.73157803  2715,6728.015,91.536,350.711,349.05,0.0
53633.0,STARLINK-4593,PAYLOAD,2022-09-14 14:00:01,15.73181806,0.0001087,53.2159,201.5804,102.0338,279.9989,0.00074621,0.00105345,0.0,0 STARLINK-4593,1 53633U 22104AX  22257.58334491  .00105345  00000-0  74621-3 0  9995,2 53633  53.2159 201.5804 0001087 102.0338 279.9989 15.73181806  2779,6727.946999999999,91.534,350.543,349.081,0.0
53633.0,STARLINK-4593,PAYLOAD,2022-09-14 22:00:00,15.73285174,0.0001077,53.2158,199.9308,108.1808,2.7912,0.00011314,0.00015345,0.0,0 STARLINK-4593,1 53633U 22104AX  22257.91667824  .00015345  00000-0  11314-3 0  9991,2 53633  53.2158 199.9308 0001077 108.1808   2.7912 15.73285174  1304,6727.651999999999,91.528,350.242,348.793,0.0
53633.0,STARLINK-4593,PAYLOAD,2022-09-15 04:00:00,15.73294248,9.76e-05,53.2153,198.6952,97.7598,349.9906,-0.00023841,-0.00034078,0.0,0 STARLINK-4593,1 53633U 22104AX  22258.16667824 -.00034078  00000-0 -23841-3 0  9993,2 53633  53.2153 198.6952 0000976  97.7598 349.9906 15.73294248  2870,6727.626,91.528,350.148,348.835,0.0
53633.0,STARLINK-4593,PAYLOAD,2022-09-15 14:00:01,15.732494199999998,0.0001103,53.2157,196.6313,107.7374,181.2951,-0.00029869,-0.00042416,0.0,0 STARLINK-4593,1 53633U 22104AX  22258.58334491 -.00042416  00000-0 -29869-3 0  9991,2 53633  53.2157 196.6313 0001103 107.7374 181.2951 15.73249420  1306,6727.754,91.53,350.361,348.87699999999984,0.0
53633.0,STARLINK-4593,PAYLOAD,2022-09-15 22:00:00,15.7325955,0.0001174,53.2152,194.982,111.5676,266.4158,-0.00065921,-0.00092359,0.0,0 STARLINK-4593,1 53633U 22104AX  22258.91667824 -.00092359  00000-0 -65921-3 0  9997,2 53633  53.2152 194.9820 0001174 111.5676 266.4158 15.73259550  1301,6727.725,91.53,350.38,348.801,0.0
53633.0,STARLINK-4593,PAYLOAD,2022-09-16 00:00:00,15.73254645,0.0001159,53.2151,194.5702,107.9528,22.2752,-0.00083469,-0.00116425,0.0,0 STARLINK-4593,1 53633U 22104AX  22259.00001157 -.00116425  00000-0 -83469-3 0  9997,2 53633  53.2151 194.5702 0001159 107.9528  22.2752 15.73254645  3000,6727.739000000001,91.53,350.384,348.825,0.0
53633.0,STARLINK-4593,PAYLOAD,2022-09-16 14:00:01,15.73180414,0.0001233,53.2153,191.683,108.6568,87.1796,0.00012898,0.00017504,0.0,0 STARLINK-4593,1 53633U 22104AX  22259.58334491  .00017504  00000-0  12898-3 0  9994,2 53633  53.2153 191.6830 0001233 108.6568  87.1796 15.73180414  1308,6727.951,91.534,350.646,348.986,0.0
53633.0,STARLINK-4593,PAYLOAD,2022-09-16 22:00:00,15.73250879,0.0001149,53.2151,190.0336,113.5368,171.2781,-0.00024364,-0.00034746,0.0,0 STARLINK-4593,1 53633U 22104AX  22259.91667824 -.00034746  00000-0 -24364-3 0  9990,2 53633  53.2151 190.0336 0001149 113.5368 171.2781 15.73250879  3145,6727.75,91.53,350.38800000000015,348.842,0.0
53633.0,STARLINK-4593,PAYLOAD,2022-09-17 14:00:01,15.73196724,0.0001107,53.2144,186.7341,117.8381,344.913,6.082100000000001e-05,7.923e-05,0.0,0 STARLINK-4593,1 53633U 22104AX  22260.58334491  .00007923  00000-0  60821-4 0  9990,2 53633  53.2144 186.7341 0001107 117.8381 344.9130 15.73196724  1302,6727.905,91.533,350.514,349.025,0.0
53633.0,STARLINK-4593,PAYLOAD,2022-09-17 22:00:00,15.73245648,0.0001341999999999,53.2146,185.085,114.1138,77.5532,-0.00052748,-0.00074143,0.0,0 STARLINK-4593,1 53633U 22104AX  22260.91667824 -.00074143  00000-0 -52748-3 0  9994,2 53633  53.2146 185.0850 0001342 114.1138  77.5532 15.73245648  1307,6727.765,91.531,350.533,348.727,0.0
53633.0,STARLINK-4593,PAYLOAD,2022-09-18 04:00:00,15.73166326,0.0001289,53.2147,183.8492,106.1837,62.2108,0.00057506,0.00080748,0.0,0 STARLINK-4593,1 53633U 22104AX  22261.16667824  .00080748  00000-0  57506-3 0  9995,2 53633  53.2147 183.8492 0001289 106.1837  62.2108 15.73166326  3344,6727.991,91.535,350.723,348.98900000000015,0.0
53633.0,STARLINK-4593,PAYLOAD,2022-09-18 14:00:01,15.73163981,0.0001187,53.2148,181.7854,120.8106,248.8182,0.00053434,0.00074926,0.0,0 STARLINK-4593,1 53633U 22104AX  22261.58335648  .00074926  00000-0  53434-3 0  9994,2 53633  53.2148 181.7854 0001187 120.8106 248.8182 15.73163981  3408,6727.998000000001,91.535,350.661,349.064,0.0
53633.0,STARLINK-4593,PAYLOAD,2022-09-18 22:00:00,15.7326574,0.0001085,53.2147,180.1367,120.557,337.9122,-0.00059074,-0.00082944,0.0,0 STARLINK-4593,1 53633U 22104AX  22261.91667824 -.00082944  00000-0 -59074-3 0  9992,2 53633  53.2147 180.1367 0001085 120.5570 337.9122 15.73265740  1305,6727.708000000001,91.529,350.30300000000005,348.843,0.0
53633.0,STARLINK-4593,PAYLOAD,2022-09-19 06:00:02,15.73190515,9.13e-05,53.2141,178.4883,113.127,74.3669,0.00021447,0.00029573,0.0,0 STARLINK-4593,1 53633U 22104AX  22262.25002315  .00029573  00000-0  21447-3 0  9998,2 53633  53.2141 178.4883 0000913 113.1270  74.3669 15.73190515  3516,6727.922,91.534,350.401,349.173,0.0
53633.0,STARLINK-4593,PAYLOAD,2022-09-19 14:00:01,15.73170133,0.0001135,53.2143,176.8368,123.7163,152.6582,0.00026421,0.00036574,0.0,0 STARLINK-4593,1 53633U 22104AX  22262.58334491  .00036574  00000-0  26421-3 0  9993,2 53633  53.2143 176.8368 0001135 123.7163 152.6582 15.73170133  1306,6727.98,91.535,350.6090000000001,349.082,0.0
53633.0,STARLINK-4593,PAYLOAD,2022-09-19 22:00:00,15.73186775,0.0001331999999999,53.2146,175.188,118.964,246.3251,-5.0857e-05,-7.747e-05,0.0,0 STARLINK-4593,1 53633U 22104AX  22262.91667824 -.00007747  00000-0 -50857-4 0  9992,2 53633  53.2146 175.1880 0001332 118.9640 246.3251 15.73186775  1308,6727.933000000001,91.534,350.694,348.902,0.0
53633.0,STARLINK-4593,PAYLOAD,2022-09-20 14:00:01,15.73139175,0.0001463,53.2149,171.8882,117.378,65.75,0.00069629,0.00097991,0.0,0 STARLINK-4593,1 53633U 22104AX  22263.58334491  .00097991  00000-0  69629-3 0  9991,2 53633  53.2149 171.8882 0001463 117.3780  65.7500 15.73139175  1301,6728.069,91.537,350.918,348.949,0.0
